COSMOS 2507             
1 40920U 15050A   23330.56003385  .00000032  00000+0  16308-3 0  9992
2 40920  82.4897 300.8817 0008294 221.0526 138.9930 12.42878679370875
COSMOS 2508             
1 40921U 15050B   23330.58688618  .00000026  00000+0  11543-3 0  9992
2 40921  82.4849 299.7238 0012673 260.4454  99.5194 12.42888347370865
COSMOS 2509             
1 40922U 15050C   23330.53266674  .00000035  00000+0  18337-3 0  9990
2 40922  82.4851 299.8380 0014859 275.4819  84.4565 12.42888726370896
LAPAN-A2                
1 40931U 15052B   23330.45042555  .00001707  00000+0  14533-3 0  9994
2 40931   6.0015   8.0294 0012506  73.4031 286.7469 14.77491267441274
LQSAT                   
1 40958U 15057A   23330.54979127  .00001371  00000+0  21405-3 0  9995
2 40958  97.6866 356.3238 0019048  61.8465 298.4666 14.74241943437624
LINGQIAO VIDEO A        
1 40959U 15057B   23330.59499362  .00001436  00000+0  22233-3 0  9991
2 40959  97.6866 357.4549 0018976  61.5227 298.7891 14.74541376437686
LINGQIAO VIDEO B        
1 40960U 15057C   23330.57285989  .00001799  00000+0  27596-3 0  9998
2 40960  97.6886 358.5135 0019122  62.0142 298.2999 14.74652569437714
JILIN-1                 
1 40961U 15057D   23330.60372500  .00001851  00000+0  27981-3 0  9996
2 40961  97.6939   1.0978 0019012  59.4254 300.8829 14.75267795437818
ELEKTRO-L 2             
1 41105U 15074A   23330.16338362 -.00000108  00000+0  00000+0 0  9999
2 41105   4.3204  81.8954 0003719 172.9922 214.2811  1.00271020 29141
TELEOS-1                
1 41169U 15077D   23329.49541369  .00020656  00000+0  81517-3 0  9994
2 41169  14.9804 263.4730 0007671 222.2177 137.7554 15.23062085439525
GALASSIA                
1 41170U 15077E   23330.41752065  .00393676  00000+0  21403-2 0  9999
2 41170  14.9836  52.1688 0001511 133.2607 226.7849 15.77541701441304
VELOX-II                
1 41171U 15077F   23329.91289990  .00086535  00000+0  22403-2 0  9999
2 41171  14.9891 196.2945 0005451 343.0877  16.9266 15.37214860440095
DAMPE                   
1 41173U 15078A   23330.54978156  .00002531  00000+0  10044-3 0  9995
2 41173  97.4176 320.2469 0014306 136.0417 224.1962 15.26199563441916
ORBCOMM FM114           
1 41179U 15081A   23330.43441583  .00002095  00000+0  50802-3 0  9993
2 41179  47.0023  88.5176 0002664 251.1047 108.9548 14.56100978421523
ORBCOMM FM110           
1 41182U 15081D   23330.48003822  .00001751  00000+0  43088-3 0  9998
2 41182  47.0014  87.7250 0000917 111.5059 248.5923 14.56096556421403
ORBCOMM FM112           
1 41184U 15081F   23330.44879024  .00002079  00000+0  50472-3 0  9990
2 41184  47.0005 356.8943 0002366 293.7697  66.2939 14.56081297422729
ORBCOMM FM113           
1 41185U 15081G   23330.08199721  .00002458  00000+0  58998-3 0  9992
2 41185  47.0027 358.8504 0001863 305.5370  54.5340 14.56066132422659
ORBCOMM FM108           
1 41187U 15081J   23329.96724826  .00002880  00000+0  68451-3 0  9993
2 41187  47.0053 270.5332 0002600 236.9432 123.1203 14.56071374423785
ORBCOMM FM117           
1 41188U 15081K   23330.27613536  .00002242  00000+0  54135-3 0  9991
2 41188  47.0014 268.0297 0003300 247.5426 112.5110 14.56068872423872
ORBCOMM FM116           
1 41189U 15081L   23330.12843115  .00002754  00000+0  65615-3 0  9997
2 41189  47.0036 358.5325 0002924 309.0388  51.0237 14.56087694422662
CHUBUSAT-2              
1 41338U 16012B   23330.19884068  .00008474  00000+0  56616-3 0  9993
2 41338  31.0026 260.8631 0012022 351.6251   8.4184 15.05632831426808
CHUBUSAT-3              
1 41339U 16012C   23330.21633336  .00007312  00000+0  49175-3 0  9999
2 41339  31.0090 258.2738 0011935 358.4675   1.5924 15.05335751426702
HORYU-4                 
1 41340U 16012D   23330.02472516  .00023570  00000+0  13670-2 0  9995
2 41340  31.0030 220.2149 0010496  63.3698 296.8015 15.10984956427198
OUFTI-1                 
1 41458U 16025C   23330.60571846  .00090162  00000+0  13223-2 0  9994
2 41458  98.1542 193.5721 0064184 235.9383 123.5764 15.52806314418069
E-ST@R-II               
1 41459U 16025D   23330.55522470  .00059621  00000+0  11389-2 0  9994
2 41459  98.1600 189.7281 0077200 248.6508 110.6486 15.44638389417823
AIST-2D (RS-48)         
1 41465U 16026B   23330.56256921  .00059530  00000+0  47675-3 0  9995
2 41465  96.9665 199.9439 0005335  11.0881 349.0500 15.70865421425339
ZIYUAN 3-2 (ZY 3-2)     
1 41556U 16033A   23330.57961174  .00012957  00000+0  58389-3 0  9994
2 41556  97.4802  42.6745 0005961 167.8919 192.2461 15.21162699416045
CARTOSAT-2C             
1 41599U 16040A   23330.50525182  .00010320  00000+0  49102-3 0  9992
2 41599  97.4169  28.0720 0013317 142.2684 217.9487 15.19278551411959
LAPAN-A3                
1 41603U 16040E   23330.54634740  .00004586  00000+0  19436-3 0  9997
2 41603  97.1549 348.6181 0014267 101.1987 259.0856 15.23522604412203
BIROS                   
1 41604U 16040F   23330.60378975  .00015113  00000+0  48057-3 0  9999
2 41604  97.1465   0.4984 0011489  63.6817 296.5604 15.32634809412941
M3MSAT                  
1 41605U 16040G   23330.61251880  .00011869  00000+0  38684-3 0  9995
2 41605  97.1463 357.9895 0011642  78.7099 281.5451 15.31897582412785
GAOFEN-3                
1 41727U 16049A   23330.60252645  .00000212  00000+0  77464-4 0  9998
2 41727  98.4072 336.2665 0001644 114.0729 246.0633 14.42178366384082
QSS (MOZI)              
1 41731U 16051A   23330.53585877  .00010657  00000+0  33097-3 0  9991
2 41731  97.3163 238.9433 0009050 227.7673 132.2802 15.33504700405440
3CAT-2                  
1 41732U 16051B   23330.56690814  .00417883  68358-4  13161-2 0  9999
2 41732  97.3875 270.4164 0010033 122.7241 237.5002 15.91250212406881
PRATHAM                 
1 41783U 16059A   23330.53834582  .00001566  00000+0  30338-3 0  9990
2 41783  97.8545 354.3441 0031664 307.9710  51.8634 14.64320190382734
ALSAT 1N                
1 41789U 16059G   23330.56555340  .00002050  00000+0  38198-3 0  9992
2 41789  97.8511   0.0920 0026174 286.3669  73.4658 14.65861500383051
CAS-2T & KS-1Q          
1 41847U 16066G   23330.13853409  .00003357  00000+0  49874-3 0  9999
2 41847  98.4880  37.8369 0358358  71.2947 292.6779 14.40383577370117
YUNHAI 1                
1 41857U 16068A   23330.58677725  .00000646  00000+0  25173-3 0  9990
2 41857  98.5925 333.2850 0006235 241.3899 118.6658 14.33065947368128
RESOURCESAT-2A          
1 41877U 16074A   23330.53820664  .00000390  00000+0  19769-3 0  9996
2 41877  98.6691  42.9079 0000544 173.4369 186.6815 14.21660349361646
TANSAT                  
1 41898U 16081A   23330.56494254  .00001142  00000+0  25842-3 0  9997
2 41898  98.4444 292.8500 0020224 315.5748  44.3827 14.58011250368477
JILIN-1 03              
1 41914U 17002B   23330.08141718  .00018715  00000+0  97316-3 0  9990
2 41914  97.2341 351.2908 0008543 252.8874 107.1424 15.16074085379208
KAIDUN 1                
1 41915U 17002C   23330.53968254  .00015817  00000+0  67767-3 0  9990
2 41915  97.2275   0.5699 0006235 228.0276 132.0431 15.22833728379820
CARTOSAT-2D             
1 41948U 17008A   23330.14257488  .00016639  00000+0  79260-3 0  9993
2 41948  97.4574  27.4584 0004803 287.4525  72.6185 15.19193850375761
DIDO-2                  
1 42000U 17008BE  23330.14553522  .00077660  00000+0  14142-2 0  9999
2 42000  97.1797  24.3843 0005330 147.7920 212.3658 15.49203717376926
ZHUHAI-1 02 (CAS-4B)    
1 42759U 17034B   23330.40184799  .00018412  00000+0  81769-3 0  9994
2 42759  43.0148 291.6353 0009637  78.4190 281.7741 15.21203953356300
ZHUHAI-1 01 (CAS-4A)    
1 42761U 17034D   23330.35036899  .00016506  00000+0  73315-3 0  9998
2 42761  43.0135 290.4165 0010539  79.4756 280.7280 15.21252049356294
NIUSAT                  
1 42766U 17036B   23330.57148109  .00061047  00000+0  97284-3 0  9998
2 42766  97.1352 359.3532 0005150 212.0152 148.0789 15.53037578357688
CARTOSAT-2E             
1 42767U 17036C   23330.55342386  .00009080  00000+0  43378-3 0  9994
2 42767  97.4696  27.6380 0006768 349.7623  10.3472 15.19235997356390
AALTO-1                 
1 42775U 17036L   23330.60211593  .00034913  00000+0  76424-3 0  9995
2 42775  97.1343 356.6490 0006216 225.4814 134.5928 15.44029913357508
URSA MAIOR              
1 42776U 17036M   23330.58112261  .00038853  00000+0  74727-3 0  9996
2 42776  97.1343 358.6149 0005650 216.1967 143.8903 15.47802318357618
MAX VALIER SAT          
1 42778U 17036P   23330.56863732  .00042563  00000+0  77130-3 0  9996
2 42778  97.1329   2.4463 0004801 213.3050 146.7900 15.49499525357776
DIAMOND RED             
1 42783U 17036U   23330.56400091  .00060805  00000+0  93300-3 0  9993
2 42783  97.1283   2.8569 0003565 214.4668 145.6355 15.54094570357886
PEGASUS                 
1 42784U 17036V   23330.05861875  .00443274  00000+0  27325-2 0  9997
2 42784  97.1200   7.7024 0003504 175.4372 184.6926 15.75929996358179
DIAMOND GREEN           
1 42785U 17036W   23330.57053408  .00072562  00000+0  99151-3 0  9995
2 42785  97.1259   3.4665 0003789 204.8535 155.2539 15.57210368357990
DIAMOND BLUE            
1 42786U 17036X   23330.56679599  .00066285  00000+0  97059-3 0  9990
2 42786  97.1281   3.1961 0004004 203.3099 156.7975 15.55356563357976
D-SAT                   
1 42794U 17036AF  23330.48028139  .00006956  00000+0  52646-3 0  9990
2 42794  97.4784 315.2996 0114055 114.8557 246.4576 14.97500331350206
IRIDIUM 113             
1 42803U 17039A   23330.59804021  .00000622  00000+0  21519-3 0  9997
2 42803  86.3978 352.3054 0001987  97.0776 263.0646 14.34221363337372
NORSAT 2                
1 42828U 17042D   23330.52098923  .00009417  00000+0  80502-3 0  9995
2 42828  97.3803 162.3204 0013400  34.8415 325.3682 14.97765229346900
TECHNOSAT               
1 42829U 17042E   23330.52720846  .00005095  00000+0  47309-3 0  9998
2 42829  97.3786 158.3313 0014008  44.5135 315.7209 14.94732237346738
